{
  "norad_id": 43689,
  "name": "METOP-C",
  "history": [
    {
      "epoch": "2026-03-28T19:49:35.302656Z",
      "apogee_km": 821.6896989174547,
      "perigee_km": 818.8579880598418,
      "latitude_deg": 3.797814746638611e-05,
      "longitude_deg": 25.232519628885754,
      "height_km": 822.7914100771657,
      "semi_major_axis_km": 7198.4108434886475,
      "eccentricity": 0.00019669,
      "inclination_deg": 98.6725,
      "raan_deg": 148.8706,
      "arg_perigee_deg": 73.7162,
      "mean_anomaly_deg": 286.4232,
      "mean_motion_rev_day": 14.21503119
    },
    {
      "epoch": "2026-03-29T04:16:22.837440Z",
      "apogee_km": 821.6816878157042,
      "perigee_km": 818.8642301577574,
      "latitude_deg": -6.7790544423841e-07,
      "longitude_deg": -101.46662304999485,
      "height_km": 822.7815290139124,
      "semi_major_axis_km": 7198.409958986731,
      "eccentricity": 0.0001957,
      "inclination_deg": 98.6724,
      "raan_deg": 149.2164,
      "arg_perigee_deg": 73.2484,
      "mean_anomaly_deg": 286.8908,
      "mean_motion_rev_day": 14.21503381
    },
    {
      "epoch": "2026-03-30T03:55:23.922912Z",
      "apogee_km": 821.6587453181364,
      "perigee_km": 818.88447863908,
      "latitude_deg": -1.0367630859049495e-05,
      "longitude_deg": -96.22412714369774,
      "height_km": 822.7543972056171,
      "semi_major_axis_km": 7198.408611978608,
      "eccentricity": 0.0001927,
      "inclination_deg": 98.6722,
      "raan_deg": 150.1847,
      "arg_perigee_deg": 71.8591,
      "mean_anomaly_deg": 288.2796,
      "mean_motion_rev_day": 14.2150378
    },
    {
      "epoch": "2026-03-30T05:36:45.432288Z",
      "apogee_km": 821.6582425048155,
      "perigee_km": 818.884839662107,
      "latitude_deg": 1.1310562779227469e-06,
      "longitude_deg": -121.56392862781343,
      "height_km": 822.7534993896518,
      "semi_major_axis_km": 7198.4085410834605,
      "eccentricity": 0.00019264,
      "inclination_deg": 98.6722,
      "raan_deg": 150.2539,
      "arg_perigee_deg": 71.8173,
      "mean_anomaly_deg": 288.3214,
      "mean_motion_rev_day": 14.21503801
    },
    {
      "epoch": "2026-03-30T14:03:32.957568Z",
      "apogee_km": 821.6540502435537,
      "perigee_km": 818.8881339182535,
      "latitude_deg": 1.953182409325831e-05,
      "longitude_deg": 111.73696012906859,
      "height_km": 822.7426200130777,
      "semi_major_axis_km": 7198.408092080904,
      "eccentricity": 0.00019212,
      "inclination_deg": 98.6722,
      "raan_deg": 150.5997,
      "arg_perigee_deg": 71.3102,
      "mean_anomaly_deg": 288.8284,
      "mean_motion_rev_day": 14.21503934
    },
    {
      "epoch": "2026-03-30T20:48:58.974336Z",
      "apogee_km": 821.6470731646814,
      "perigee_km": 818.8944020458212,
      "latitude_deg": 6.321056848217396e-05,
      "longitude_deg": 10.377741180661372,
      "height_km": 822.7363287568743,
      "semi_major_axis_km": 7198.407737605251,
      "eccentricity": 0.0001912,
      "inclination_deg": 98.6721,
      "raan_deg": 150.8764,
      "arg_perigee_deg": 70.9549,
      "mean_anomaly_deg": 289.1836,
      "mean_motion_rev_day": 14.21504039
    },
    {
      "epoch": "2026-03-31T20:28:00.025248Z",
      "apogee_km": 821.6321063300375,
      "perigee_km": 818.9067896488295,
      "latitude_deg": -4.5591606702644156e-05,
      "longitude_deg": 15.620297261873082,
      "height_km": 822.7073726739264,
      "semi_major_axis_km": 7198.406447989433,
      "eccentricity": 0.0001893,
      "inclination_deg": 98.6719,
      "raan_deg": 151.8446,
      "arg_perigee_deg": 69.5159,
      "mean_anomaly_deg": 290.6221,
      "mean_motion_rev_day": 14.21504421
    },
    {
      "epoch": "2026-04-01T20:07:01.055424Z",
      "apogee_km": 821.6083927358704,
      "perigee_km": 818.9291461084913,
      "latitude_deg": -2.7909386644947612e-05,
      "longitude_deg": 20.86292067980791,
      "height_km": 822.6865743232864,
      "semi_major_axis_km": 7198.40576942218,
      "eccentricity": 0.0001861,
      "inclination_deg": 98.6717,
      "raan_deg": 152.8128,
      "arg_perigee_deg": 68.2201,
      "mean_anomaly_deg": 291.9174,
      "mean_motion_rev_day": 14.21504622
    },
    {
      "epoch": "2026-04-02T19:46:02.042400Z",
      "apogee_km": 821.5872896429273,
      "perigee_km": 818.9454756015057,
      "latitude_deg": 1.5059150034647989e-05,
      "longitude_deg": 26.105820289002185,
      "height_km": 822.6658379364908,
      "semi_major_axis_km": 7198.403382622217,
      "eccentricity": 0.0001835,
      "inclination_deg": 98.6715,
      "raan_deg": 153.7811,
      "arg_perigee_deg": 67.0306,
      "mean_anomaly_deg": 293.1065,
      "mean_motion_rev_day": 14.21505329
    },
    {
      "epoch": "2026-04-02T21:27:23.541408Z",
      "apogee_km": 821.5848331320913,
      "perigee_km": 818.9477700665848,
      "latitude_deg": 6.68539494961525e-05,
      "longitude_deg": 0.7659559779954644,
      "height_km": 822.6641400647828,
      "semi_major_axis_km": 7198.403301599338,
      "eccentricity": 0.00018317,
      "inclination_deg": 98.6715,
      "raan_deg": 153.8502,
      "arg_perigee_deg": 66.9105,
      "mean_anomaly_deg": 293.2266,
      "mean_motion_rev_day": 14.21505353
    },
    {
      "epoch": "2026-04-03T19:25:03Z",
      "apogee_km": 821.5634659022953,
      "perigee_km": 818.9648430855232,
      "latitude_deg": 1.2132944628445208e-05,
      "longitude_deg": 31.34864888368868,
      "height_km": 822.6461934433557,
      "semi_major_axis_km": 7198.401154493909,
      "eccentricity": 0.0001805,
      "inclination_deg": 98.6713,
      "raan_deg": 154.7492,
      "arg_perigee_deg": 65.7832,
      "mean_anomaly_deg": 294.3534,
      "mean_motion_rev_day": 14.21505989
    },
    {
      "epoch": "2026-04-04T05:33:11.969856Z",
      "apogee_km": 821.5560240939185,
      "perigee_km": 818.9709345137908,
      "latitude_deg": -3.587842944141077e-05,
      "longitude_deg": -120.68998200701947,
      "height_km": 822.6409290601435,
      "semi_major_axis_km": 7198.400479303854,
      "eccentricity": 0.00017956,
      "inclination_deg": 98.6713,
      "raan_deg": 155.1642,
      "arg_perigee_deg": 65.4233,
      "mean_anomaly_deg": 294.7131,
      "mean_motion_rev_day": 14.21506189
    }
  ]
}